LANDSAT 9               
1 49260U 21088A   24068.15846865  .00000701  00000+0  16562-3 0  9993
2 49260  98.1970 139.4475 0001411  97.2683 262.8676 14.57113606129971
